start=new Date('2022-05-13T00:00:00.000Z').valueOf();
sats=[{"REF_FRAME":"TEME","FILE":"3442534","LAUNCH_DATE":"2021-02-16","TLE_LINE2":"2 47663  53.0515 121.6044 0002026  47.6915 283.7022 15.06424254  1308","REV_AT_EPOCH":"130","EPOCH":"2022-05-13T00:00:00.999648","DECAY_DATE":null,"PERIAPSIS":"545.736","MEAN_MOTION_DOT":"-0.00039339","CENTER_NAME":"EARTH","MEAN_MOTION_DDOT":"0.0000000000000","COUNTRY_CODE":"US","INCLINATION":"53.0515","OBJECT_ID":"2021-012AV","RCS_SIZE":"LARGE","MEAN_ELEMENT_THEORY":"SGP4","EPHEMERIS_TYPE":"0","ARG_OF_PERICENTER":"47.6915","MEAN_MOTION":"15.06424254","SITE":"AFETR","NORAD_CAT_ID":"47663","APOAPSIS":"548.542","RA_OF_ASC_NODE":"121.6044","ELEMENT_SET_NO":"999","SEMIMAJOR_AXIS":"6925.274","GP_ID":"203392338","OBJECT_TYPE":"PAYLOAD","OBJECT_NAME":"STARLINK-2053","TLE_LINE1":"1 47663U 21012AV  22133.00001157 -.00039339  00000-0 -26349-2 0  9992","BSTAR":"-0.00263490000000","CLASSIFICATION_TYPE":"U","ECCENTRICITY":"0.00020260","PERIOD":"95.591","MEAN_ANOMALY":"283.7022","TIME_SYSTEM":"UTC"},{"REF_FRAME":"TEME","FILE":"3442534","LAUNCH_DATE":"2021-02-16","TLE_LINE2":"2 47664  53.0545 202.0287 0001646  48.2280 311.8850 15.06409016 69747","REV_AT_EPOCH":"6974","EPOCH":"2022-05-12T21:45:40.982112","DECAY_DATE":null,"PERIAPSIS":"546.046","CENTER_NAME":"EARTH","MEAN_MOTION_DOT":"0.00002768","MEAN_MOTION_DDOT":"0.0000000000000","OBJECT_ID":"2021-012AW","INCLINATION":"53.0545","COUNTRY_CODE":"US","MEAN_ELEMENT_THEORY":"SGP4","RCS_SIZE":"LARGE","ARG_OF_PERICENTER":"48.2280","EPHEMERIS_TYPE":"0","MEAN_MOTION":"15.06409016","SITE":"AFETR","APOAPSIS":"548.326","NORAD_CAT_ID":"47664","ELEMENT_SET_NO":"999","RA_OF_ASC_NODE":"202.0287","GP_ID":"203390587","SEMIMAJOR_AXIS":"6925.321","OBJECT_TYPE":"PAYLOAD","OBJECT_NAME":"STARLINK-2054","TLE_LINE1":"1 47664U 21012AW  22132.90672433  .00002768  00000-0  20463-3 0  9998","BSTAR":"0.00020463000000","PERIOD":"95.592","CLASSIFICATION_TYPE":"U","ECCENTRICITY":"0.00016460","TIME_SYSTEM":"UTC","MEAN_ANOMALY":"311.8850"},{"OBJECT_ID":"2021-012AX","INCLINATION":"53.0552","COUNTRY_CODE":"US","MEAN_ELEMENT_THEORY":"SGP4","RCS_SIZE":"LARGE","ARG_OF_PERICENTER":"78.2183","EPHEMERIS_TYPE":"0","MEAN_MOTION":"15.06399091","DECAY_DATE":null,"PERIAPSIS":"546.238","CENTER_NAME":"EARTH","MEAN_MOTION_DOT":"0.00000776","MEAN_MOTION_DDOT":"0.0000000000000","TLE_LINE2":"2 47665  53.0552 197.1287 0001412  78.2183 281.8965 15.06399091 69807","REV_AT_EPOCH":"6980","EPOCH":"2022-05-12T21:10:30.466848","REF_FRAME":"TEME","FILE":"3442534","LAUNCH_DATE":"2021-02-16","PERIOD":"95.592","CLASSIFICATION_TYPE":"U","ECCENTRICITY":"0.00014120","TIME_SYSTEM":"UTC","MEAN_ANOMALY":"281.8965","TLE_LINE1":"1 47665U 21012AX  22132.88229707  .00000776  00000-0  71014-4 0  9994","BSTAR":"0.00007101400000","GP_ID":"203390837","SEMIMAJOR_AXIS":"6925.351","OBJECT_TYPE":"PAYLOAD","OBJECT_NAME":"STARLINK-2056","SITE":"AFETR","APOAPSIS":"548.194","NORAD_CAT_ID":"47665","ELEMENT_SET_NO":"999","RA_OF_ASC_NODE":"197.1287"},{"TLE_LINE1":"1 47666U 21012AY  22132.45104899  .00000497  00000-0  52290-4 0  9997","BSTAR":"0.00005229000000","PERIOD":"95.593","ECCENTRICITY":"0.00018710","CLASSIFICATION_TYPE":"U","TIME_SYSTEM":"UTC","MEAN_ANOMALY":"309.5359","APOAPSIS":"548.543","NORAD_CAT_ID":"47666","SITE":"AFETR","ELEMENT_SET_NO":"999","RA_OF_ASC_NODE":"199.0726","SEMIMAJOR_AXIS":"6925.382","GP_ID":"203365925","OBJECT_TYPE":"PAYLOAD","OBJECT_NAME":"STARLINK-2057","PERIAPSIS":"545.951","DECAY_DATE":null,"MEAN_MOTION_DDOT":"0.0000000000000","CENTER_NAME":"EARTH","MEAN_MOTION_DOT":"0.00000497","MEAN_ELEMENT_THEORY":"SGP4","RCS_SIZE":"LARGE","INCLINATION":"53.0535","OBJECT_ID":"2021-012AY","COUNTRY_CODE":"US","MEAN_MOTION":"15.06389029","ARG_OF_PERICENTER":"50.5795","EPHEMERIS_TYPE":"0","FILE":"3442533","REF_FRAME":"TEME","LAUNCH_DATE":"2021-02-16","TLE_LINE2":"2 47666  53.0535 199.0726 0001871  50.5795 309.5359 15.06389029 69747","EPOCH":"2022-05-12T10:49:30.632736","REV_AT_EPOCH":"6974"},{"REF_FRAME":"TEME","FILE":"3442534","LAUNCH_DATE":"2021-02-16","TLE_LINE2":"2 47667  53.0555 223.3832 0001706  49.1024 311.0113 15.06400049 69398","REV_AT_EPOCH":"6939","EPOCH":"2022-05-12T14:33:06.785856","DECAY_DATE":null,"PERIAPSIS":"546.032","CENTER_NAME":"EARTH","MEAN_MOTION_DOT":"0.00001903","MEAN_MOTION_DDOT":"0.0000000000000","INCLINATION":"53.0555","OBJECT_ID":"2021-012AZ","COUNTRY_CODE":"US","MEAN_ELEMENT_THEORY":"SGP4","RCS_SIZE":"LARGE","ARG_OF_PERICENTER":"49.1024","EPHEMERIS_TYPE":"0","MEAN_MOTION":"15.06400049","SITE":"AFETR","APOAPSIS":"548.395","NORAD_CAT_ID":"47667","ELEMENT_SET_NO":"999","RA_OF_ASC_NODE":"223.3832","GP_ID":"203391838","SEMIMAJOR_AXIS":"6925.348","OBJECT_TYPE":"PAYLOAD","OBJECT_NAME":"STARLINK-2058","TLE_LINE1":"1 47667U 21012AZ  22132.60632854  .00001903  00000-0  14664-3 0  9997","BSTAR":"0.00014664000000","PERIOD":"95.592","CLASSIFICATION_TYPE":"U","ECCENTRICITY":"0.00017060","MEAN_ANOMALY":"311.0113","TIME_SYSTEM":"UTC"},{"LAUNCH_DATE":"2021-02-16","FILE":"3442533","REF_FRAME":"TEME","EPOCH":"2022-05-12T12:23:05.275392","REV_AT_EPOCH":"6968","TLE_LINE2":"2 47668  53.0538 203.7729 0001753  52.0595 308.0552 15.06390140 69680","MEAN_MOTION_DDOT":"0.0000000000000","MEAN_MOTION_DOT":"0.00001830","CENTER_NAME":"EARTH","PERIAPSIS":"546.030","DECAY_DATE":null,"MEAN_MOTION":"15.06390140","ARG_OF_PERICENTER":"52.0595","EPHEMERIS_TYPE":"0","MEAN_ELEMENT_THEORY":"SGP4","RCS_SIZE":"LARGE","INCLINATION":"53.0538","OBJECT_ID":"2021-012BA","COUNTRY_CODE":"US","ELEMENT_SET_NO":"999","RA_OF_ASC_NODE":"203.7729","APOAPSIS":"548.458","NORAD_CAT_ID":"47668","SITE":"AFETR","OBJECT_NAME":"STARLINK-2059","OBJECT_TYPE":"PAYLOAD","GP_ID":"203366926","SEMIMAJOR_AXIS":"6925.379","BSTAR":"0.00014177000000","TLE_LINE1":"1 47668U 21012BA  22132.51603328  .00001830  00000-0  14177-3 0  9990","MEAN_ANOMALY":"308.0552","TIME_SYSTEM":"UTC","PERIOD":"95.593","CLASSIFICATION_TYPE":"U","ECCENTRICITY":"0.00017530"},{"BSTAR":"0.00127080000000","TLE_LINE1":"1 47669U 21012BB  22133.00001157  .00019341  00000-0  12708-2 0  9991","MEAN_ANOMALY":"118.3980","TIME_SYSTEM":"UTC","PERIOD":"95.514","ECCENTRICITY":"0.00030870","CLASSIFICATION_TYPE":"U","ELEMENT_SET_NO":"999","RA_OF_ASC_NODE":"126.4510","SITE":"AFETR","APOAPSIS":"545.575","NORAD_CAT_ID":"47669","OBJECT_NAME":"STARLINK-2060","OBJECT_TYPE":"PAYLOAD","GP_ID":"203391337","SEMIMAJOR_AXIS":"6921.574","MEAN_MOTION_DOT":"0.00019341","CENTER_NAME":"EARTH","MEAN_MOTION_DDOT":"0.0000000000000","DECAY_DATE":null,"PERIAPSIS":"541.302","ARG_OF_PERICENTER":"68.7747","EPHEMERIS_TYPE":"0","MEAN_MOTION":"15.07632467","OBJECT_ID":"2021-012BB","INCLINATION":"53.0533","COUNTRY_CODE":"US","MEAN_ELEMENT_THEORY":"SGP4","RCS_SIZE":"LARGE","LAUNCH_DATE":"2021-02-16","REF_FRAME":"TEME","FILE":"3442534","REV_AT_EPOCH":"130","EPOCH":"2022-05-13T00:00:00.999648","TLE_LINE2":"2 47669  53.0533 126.4510 0003087  68.7747 118.3980 15.07632467  1304"},{"ELEMENT_SET_NO":"999","RA_OF_ASC_NODE":"203.4015","SITE":"AFETR","APOAPSIS":"549.022","NORAD_CAT_ID":"47670","OBJECT_NAME":"STARLINK-2062","OBJECT_TYPE":"PAYLOAD","GP_ID":"203391588","SEMIMAJOR_AXIS":"6925.348","BSTAR":"0.00017146000000","TLE_LINE1":"1 47670U 21012BC  22132.59711081  .00002273  00000-0  17146-3 0  9998","TIME_SYSTEM":"UTC","MEAN_ANOMALY":"331.1399","PERIOD":"95.592","CLASSIFICATION_TYPE":"U","ECCENTRICITY":"0.00026120","LAUNCH_DATE":"2021-02-16","REF_FRAME":"TEME","FILE":"3442534","REV_AT_EPOCH":"6968","EPOCH":"2022-05-12T14:19:50.373984","TLE_LINE2":"2 47670  53.0546 203.4015 0002612  28.9734 331.1399 15.06400265 69685","CENTER_NAME":"EARTH","MEAN_MOTION_DOT":"0.00002273","MEAN_MOTION_DDOT":"0.0000000000000","DECAY_DATE":null,"PERIAPSIS":"545.404","ARG_OF_PERICENTER":"28.9734","EPHEMERIS_TYPE":"0","MEAN_MOTION":"15.06400265","INCLINATION":"53.0546","OBJECT_ID":"2021-012BC","COUNTRY_CODE":"US","MEAN_ELEMENT_THEORY":"SGP4","RCS_SIZE":"LARGE"},{"ELEMENT_SET_NO":"999","RA_OF_ASC_NODE":"203.7895","SITE":"AFETR","APOAPSIS":"548.260","NORAD_CAT_ID":"47671","OBJECT_NAME":"STARLINK-2064","OBJECT_TYPE":"PAYLOAD","SEMIMAJOR_AXIS":"6925.337","GP_ID":"203365676","BSTAR":"0.00018471000000","TLE_LINE1":"1 47671U 21012BD  22132.51233724  .00002471  00000-0  18471-3 0  9996","TIME_SYSTEM":"UTC","MEAN_ANOMALY":"299.5795","PERIOD":"95.592","ECCENTRICITY":"0.00015270","CLASSIFICATION_TYPE":"U","LAUNCH_DATE":"2021-02-16","REF_FRAME":"TEME","FILE":"3442533","REV_AT_EPOCH":"6968","EPOCH":"2022-05-12T12:17:45.937536","TLE_LINE2":"2 47671  53.0534 203.7895 0001527  60.5346 299.5795 15.06403624 69686","CENTER_NAME":"EARTH","MEAN_MOTION_DOT":"0.00002471","MEAN_MOTION_DDOT":"0.0000000000000","DECAY_DATE":null,"PERIAPSIS":"546.145","ARG_OF_PERICENTER":"60.5346","EPHEMERIS_TYPE":"0","MEAN_MOTION":"15.06403624","OBJECT_ID":"2021-012BD","INCLINATION":"53.0534","COUNTRY_CODE":"US","MEAN_ELEMENT_THEORY":"SGP4","RCS_SIZE":"LARGE"},{"LAUNCH_DATE":"2021-02-16","FILE":"3442534","REF_FRAME":"TEME","EPOCH":"2022-05-12T21:20:29.703552","REV_AT_EPOCH":"6985","TLE_LINE2":"2 47672  53.0556 192.0983 0001343  69.4183 290.6950 15.06400548 69858","MEAN_MOTION_DDOT":"0.0000000000000","MEAN_MOTION_DOT":"0.00000411","CENTER_NAME":"EARTH","PERIAPSIS":"546.282","DECAY_DATE":null,"MEAN_MOTION":"15.06400548","ARG_OF_PERICENTER":"69.4183","EPHEMERIS_TYPE":"0","MEAN_ELEMENT_THEORY":"SGP4","RCS_SIZE":"LARGE","INCLINATION":"53.0556","OBJECT_ID":"2021-012BE","COUNTRY_CODE":"US","ELEMENT_SET_NO":"999","RA_OF_ASC_NODE":"192.0983","APOAPSIS":"548.142","NORAD_CAT_ID":"47672","SITE":"AFETR","OBJECT_TYPE":"PAYLOAD","OBJECT_NAME":"STARLINK-2065","SEMIMAJOR_AXIS":"6925.347","GP_ID":"203390588","BSTAR":"0.00004650300000","TLE_LINE1":"1 47672U 21012BE  22132.88923268  .00000411  00000-0  46503-4 0  9996","TIME_SYSTEM":"UTC","MEAN_ANOMALY":"290.6950","PERIOD":"95.592","ECCENTRICITY":"0.00013430","CLASSIFICATION_TYPE":"U"}];
